[{"OBJECT_NAME":"ARIRANG-2 (KOMPSAT-2)","OBJECT_ID":"2006-031A","EPOCH":"2026-03-09T23:26:11.281344","MEAN_MOTION":14.64589494,"ECCENTRICITY":0.00152528,"INCLINATION":97.8302,"RA_OF_ASC_NODE":258.2159,"ARG_OF_PERICENTER":32.9467,"MEAN_ANOMALY":122.2845,"EPHEMERIS_TYPE":0,"CLASSIFICATION_TYPE":"U","NORAD_CAT_ID":29268,"ELEMENT_SET_NO":999,"REV_AT_EPOCH":4695,"BSTAR":0.00012039561,"MEAN_MOTION_DOT":5.95e-6,"MEAN_MOTION_DDOT":0},{"OBJECT_NAME":"SL-8 DEB","OBJECT_ID":"1989-005C","EPOCH":"2026-03-09T21:21:21.031200","MEAN_MOTION":14.63182819,"ECCENTRICITY":0.00094548,"INCLINATION":74.0675,"RA_OF_ASC_NODE":3.1018,"ARG_OF_PERICENTER":42.6643,"MEAN_ANOMALY":24.5528,"EPHEMERIS_TYPE":0,"CLASSIFICATION_TYPE":"U","NORAD_CAT_ID":19831,"ELEMENT_SET_NO":999,"REV_AT_EPOCH":95806,"BSTAR":0.00063752146,"MEAN_MOTION_DOT":3.255e-5,"MEAN_MOTION_DDOT":0}]
